[Satellite]
VERSION=1.1
NAME=IRIDIUM 22 [+]
NICKNAME=IRIDIUM 22 [+]
TLE1=1 24907U 97043E   17186.19196509  .00000127  00000-0  38180-4 0  9992
TLE2=2 24907  86.3972 248.5588 0002293  92.3106 267.8352 14.34220620 40423
